[{"OBJECT_NAME":"DOJO","OBJECT_ID":"2025-185F","EPOCH":"2026-03-09T17:11:19.626432","MEAN_MOTION":14.77363091,"ECCENTRICITY":0.00117501,"INCLINATION":97.9656,"RA_OF_ASC_NODE":153.1684,"ARG_OF_PERICENTER":55.9365,"MEAN_ANOMALY":304.2959,"EPHEMERIS_TYPE":0,"CLASSIFICATION_TYPE":"U","NORAD_CAT_ID":65302,"ELEMENT_SET_NO":999,"REV_AT_EPOCH":2914,"BSTAR":0.00075654511,"MEAN_MOTION_DOT":5.335e-5,"MEAN_MOTION_DDOT":0},{"OBJECT_NAME":"YZ-1S DEB","OBJECT_ID":"2021-099C","EPOCH":"2026-03-09T21:55:45.414912","MEAN_MOTION":14.74172291,"ECCENTRICITY":0.00058071,"INCLINATION":98.2627,"RA_OF_ASC_NODE":212.3461,"ARG_OF_PERICENTER":311.9054,"MEAN_ANOMALY":48.1658,"EPHEMERIS_TYPE":0,"CLASSIFICATION_TYPE":"U","NORAD_CAT_ID":49385,"ELEMENT_SET_NO":999,"REV_AT_EPOCH":23250,"BSTAR":0.00065707337,"MEAN_MOTION_DOT":4.285e-5,"MEAN_MOTION_DDOT":0}]
